FLOCK 4G-14             
1 62667U 25009BL  26068.75869712  .00011310  00000+0  42676-3 0  9993
2 62667  97.4064 151.1836 0003006 318.3639  41.7371 15.27197201 63711
STARLINK-35986          
1 66853U 25281F   26068.13982282  .00025995  00000+0  95033-3 0  9995
2 66853  43.0001 346.3912 0001048 278.0103  82.0629 15.27597385 16107
